STARLINK-32755          
1 62842U 25019P   25302.53298455  .00020274  00000+0  74399-3 0  9991
2 62842  43.0001 102.6433 0001644 250.4920 109.5754 15.27590792 42271
STARLINK-32797          
1 62843U 25019Q   25302.73331539  .00027641  00000+0  10097-2 0  9994
2 62843  43.0027 108.4854 0002079 279.8145  80.2472 15.27595513 42221
STARLINK-32794          
1 62844U 25019R   25303.15132424  .00030145  00000+0  10993-2 0  9992
2 62844  43.0014 106.4594 0003106 279.5329  80.5172 15.27611837 42284
STARLINK-32807          
1 62845U 25019S   25302.70985723  .00032928  00000+0  11999-2 0  9999
2 62845  43.0047 101.3841 0002051 272.6287  87.4330 15.27602227 42303
STARLINK-32804          
1 62846U 25019T   25302.80640300  .00028068  00000+0  10242-2 0  9990
2 62846  43.0003 108.1723 0001429 268.8479  91.2209 15.27626064 42233
STARLINK-32799          
1 62847U 25019U   25303.18330921  .00038361  00000+0  13952-2 0  9996
2 62847  43.0026 105.8371 0001969 276.8119  83.2509 15.27605736 42294
STARLINK-32781          
1 62848U 25019V   25302.87051055  .00034106  00000+0  12421-2 0  9993
2 62848  43.0018 107.7955 0001657 272.2083  87.8578 15.27608372 42249
STARLINK-32809          
1 62849U 25019W   25303.17302528  .00033286  00000+0  12126-2 0  9992
2 62849  43.0089 105.7665 0002251 267.9199  92.1395 15.27608069 42298
STARLINK-32868          
1 62854U 25022A   25302.46348954  .00048194  00000+0  16303-2 0  9991
2 62854  53.1613  18.8045 0001754  61.7801 298.3377 15.30169980 42627
STARLINK-32867          
1 62855U 25022B   25302.92385876  .00040152  00000+0  13602-2 0  9992
2 62855  53.1610  16.6893 0001551  86.2997 273.8181 15.30206644 41882
STARLINK-32860          
1 62856U 25022C   25302.91236958  .00051397  00000+0  17358-2 0  9993
2 62856  53.1597  17.3361 0001490  74.8327 285.2839 15.30193963 41872
STARLINK-32873          
1 62857U 25022D   25302.91130599  .00038576  00000+0  13076-2 0  9995
2 62857  53.1596  17.3341 0001082  85.9184 274.1940 15.30205946 41876
STARLINK-32866          
1 62858U 25022E   25302.92808142  .00039938  00000+0  13533-2 0  9994
2 62858  53.1607  16.7235 0001472  83.2743 276.8425 15.30199268 41887
STARLINK-32869          
1 62859U 25022F   25302.93968041  .00036313  00000+0  12339-2 0  9998
2 62859  53.1607  16.7837 0001453 104.4153 255.7009 15.30154553 41888
STARLINK-32831          
1 62860U 25022G   25302.94813029  .00029336  00000+0  99850-3 0  9997
2 62860  53.1604  16.8519 0001372  89.6566 270.4592 15.30206001 41873
STARLINK-32859          
1 62861U 25022H   25302.91658255  .00030775  00000+0  10465-2 0  9996
2 62861  53.1605  17.3617 0001122  98.6792 261.4336 15.30211681 41870
