[{"OBJECT_NAME":"STARLINK-32755","OBJECT_ID":"2025-019P","EPOCH":"2025-10-29T12:47:29.865120","MEAN_MOTION":15.27590792,"ECCENTRICITY":0.00016448,"INCLINATION":43.0001,"RA_OF_ASC_NODE":102.6433,"ARG_OF_PERICENTER":250.492,"MEAN_ANOMALY":109.5754,"EPHEMERIS_TYPE":0,"CLASSIFICATION_TYPE":"U","NORAD_CAT_ID":62842,"ELEMENT_SET_NO":999,"REV_AT_EPOCH":4227,"BSTAR":0.00074398691,"MEAN_MOTION_DOT":0.00020274,"MEAN_MOTION_DDOT":0},{"OBJECT_NAME":"STARLINK-32797","OBJECT_ID":"2025-019Q","EPOCH":"2025-10-29T17:35:58.449696","MEAN_MOTION":15.27595513,"ECCENTRICITY":0.0002079,"INCLINATION":43.0027,"RA_OF_ASC_NODE":108.4854,"ARG_OF_PERICENTER":279.8145,"MEAN_ANOMALY":80.2472,"EPHEMERIS_TYPE":0,"CLASSIFICATION_TYPE":"U","NORAD_CAT_ID":62843,"ELEMENT_SET_NO":999,"REV_AT_EPOCH":4222,"BSTAR":0.001009712,"MEAN_MOTION_DOT":0.00027641,"MEAN_MOTION_DDOT":0},{"OBJECT_NAME":"STARLINK-32794","OBJECT_ID":"2025-019R","EPOCH":"2025-10-30T03:37:54.414336","MEAN_MOTION":15.27611837,"ECCENTRICITY":0.00031062,"INCLINATION":43.0014,"RA_OF_ASC_NODE":106.4594,"ARG_OF_PERICENTER":279.5329,"MEAN_ANOMALY":80.5172,"EPHEMERIS_TYPE":0,"CLASSIFICATION_TYPE":"U","NORAD_CAT_ID":62844,"ELEMENT_SET_NO":999,"REV_AT_EPOCH":4228,"BSTAR":0.0010993291,"MEAN_MOTION_DOT":0.00030145,"MEAN_MOTION_DDOT":0},{"OBJECT_NAME":"STARLINK-32807","OBJECT_ID":"2025-019S","EPOCH":"2025-10-29T17:02:11.664672","MEAN_MOTION":15.27602227,"ECCENTRICITY":0.0002051,"INCLINATION":43.0047,"RA_OF_ASC_NODE":101.3841,"ARG_OF_PERICENTER":272.6287,"MEAN_ANOMALY":87.433,"EPHEMERIS_TYPE":0,"CLASSIFICATION_TYPE":"U","NORAD_CAT_ID":62845,"ELEMENT_SET_NO":999,"REV_AT_EPOCH":4230,"BSTAR":0.0011999257,"MEAN_MOTION_DOT":0.00032928,"MEAN_MOTION_DDOT":0},{"OBJECT_NAME":"STARLINK-32804","OBJECT_ID":"2025-019T","EPOCH":"2025-10-29T19:21:13.219200","MEAN_MOTION":15.27626064,"ECCENTRICITY":0.00014299,"INCLINATION":43.0003,"RA_OF_ASC_NODE":108.1723,"ARG_OF_PERICENTER":268.8479,"MEAN_ANOMALY":91.2209,"EPHEMERIS_TYPE":0,"CLASSIFICATION_TYPE":"U","NORAD_CAT_ID":62846,"ELEMENT_SET_NO":999,"REV_AT_EPOCH":4223,"BSTAR":0.0010241917,"MEAN_MOTION_DOT":0.00028068,"MEAN_MOTION_DDOT":0},{"OBJECT_NAME":"STARLINK-32799","OBJECT_ID":"2025-019U","EPOCH":"2025-10-30T04:23:57.915744","MEAN_MOTION":15.27605736,"ECCENTRICITY":0.00019691,"INCLINATION":43.0026,"RA_OF_ASC_NODE":105.8371,"ARG_OF_PERICENTER":276.8119,"MEAN_ANOMALY":83.2509,"EPHEMERIS_TYPE":0,"CLASSIFICATION_TYPE":"U","NORAD_CAT_ID":62847,"ELEMENT_SET_NO":999,"REV_AT_EPOCH":4229,"BSTAR":0.0013951899,"MEAN_MOTION_DOT":0.00038361,"MEAN_MOTION_DDOT":0},{"OBJECT_NAME":"STARLINK-32781","OBJECT_ID":"2025-019V","EPOCH":"2025-10-29T20:53:32.111520","MEAN_MOTION":15.27608372,"ECCENTRICITY":0.00016573,"INCLINATION":43.0018,"RA_OF_ASC_NODE":107.7955,"ARG_OF_PERICENTER":272.2083,"MEAN_ANOMALY":87.8578,"EPHEMERIS_TYPE":0,"CLASSIFICATION_TYPE":"U","NORAD_CAT_ID":62848,"ELEMENT_SET_NO":999,"REV_AT_EPOCH":4224,"BSTAR":0.00124212,"MEAN_MOTION_DOT":0.00034106,"MEAN_MOTION_DDOT":0},{"OBJECT_NAME":"STARLINK-32809","OBJECT_ID":"2025-019W","EPOCH":"2025-10-30T04:09:09.384192","MEAN_MOTION":15.27608069,"ECCENTRICITY":0.00022512,"INCLINATION":43.0089,"RA_OF_ASC_NODE":105.7665,"ARG_OF_PERICENTER":267.9199,"MEAN_ANOMALY":92.1395,"EPHEMERIS_TYPE":0,"CLASSIFICATION_TYPE":"U","NORAD_CAT_ID":62849,"ELEMENT_SET_NO":999,"REV_AT_EPOCH":4229,"BSTAR":0.0012126158,"MEAN_MOTION_DOT":0.00033286,"MEAN_MOTION_DDOT":0},{"OBJECT_NAME":"STARLINK-32868","OBJECT_ID":"2025-022A","EPOCH":"2025-10-29T11:07:25.496256","MEAN_MOTION":15.3016998,"ECCENTRICITY":0.00017549,"INCLINATION":53.1613,"RA_OF_ASC_NODE":18.8045,"ARG_OF_PERICENTER":61.7801,"MEAN_ANOMALY":298.3377,"EPHEMERIS_TYPE":0,"CLASSIFICATION_TYPE":"U","NORAD_CAT_ID":62854,"ELEMENT_SET_NO":999,"REV_AT_EPOCH":4262,"BSTAR":0.0016302865,"MEAN_MOTION_DOT":0.00048194,"MEAN_MOTION_DDOT":0},{"OBJECT_NAME":"STARLINK-32867","OBJECT_ID":"2025-022B","EPOCH":"2025-10-29T22:10:21.396864","MEAN_MOTION":15.30206644,"ECCENTRICITY":0.00015519,"INCLINATION":53.161,"RA_OF_ASC_NODE":16.6893,"ARG_OF_PERICENTER":86.2997,"MEAN_ANOMALY":273.8181,"EPHEMERIS_TYPE":0,"CLASSIFICATION_TYPE":"U","NORAD_CAT_ID":62855,"ELEMENT_SET_NO":999,"REV_AT_EPOCH":4188,"BSTAR":0.0013601858,"MEAN_MOTION_DOT":0.00040152,"MEAN_MOTION_DDOT":0},{"OBJECT_NAME":"STARLINK-32860","OBJECT_ID":"2025-022C","EPOCH":"2025-10-29T21:53:48.731712","MEAN_MOTION":15.30193963,"ECCENTRICITY":0.00014902,"INCLINATION":53.1597,"RA_OF_ASC_NODE":17.3361,"ARG_OF_PERICENTER":74.8327,"MEAN_ANOMALY":285.2839,"EPHEMERIS_TYPE":0,"CLASSIFICATION_TYPE":"U","NORAD_CAT_ID":62856,"ELEMENT_SET_NO":999,"REV_AT_EPOCH":4187,"BSTAR":0.0017358153,"MEAN_MOTION_DOT":0.00051397,"MEAN_MOTION_DDOT":0},{"OBJECT_NAME":"STARLINK-32873","OBJECT_ID":"2025-022D","EPOCH":"2025-10-29T21:52:16.837536","MEAN_MOTION":15.30205946,"ECCENTRICITY":0.00010822,"INCLINATION":53.1596,"RA_OF_ASC_NODE":17.3341,"ARG_OF_PERICENTER":85.9184,"MEAN_ANOMALY":274.194,"EPHEMERIS_TYPE":0,"CLASSIFICATION_TYPE":"U","NORAD_CAT_ID":62857,"ELEMENT_SET_NO":999,"REV_AT_EPOCH":4187,"BSTAR":0.0013075706,"MEAN_MOTION_DOT":0.00038576,"MEAN_MOTION_DDOT":0},{"OBJECT_NAME":"STARLINK-32866","OBJECT_ID":"2025-022E","EPOCH":"2025-10-29T22:16:26.234688","MEAN_MOTION":15.30199268,"ECCENTRICITY":0.00014721,"INCLINATION":53.1607,"RA_OF_ASC_NODE":16.7235,"ARG_OF_PERICENTER":83.2743,"MEAN_ANOMALY":276.8425,"EPHEMERIS_TYPE":0,"CLASSIFICATION_TYPE":"U","NORAD_CAT_ID":62858,"ELEMENT_SET_NO":999,"REV_AT_EPOCH":4188,"BSTAR":0.0013533392,"MEAN_MOTION_DOT":0.00039938,"MEAN_MOTION_DDOT":0},{"OBJECT_NAME":"STARLINK-32869","OBJECT_ID":"2025-022F","EPOCH":"2025-10-29T22:33:08.387424","MEAN_MOTION":15.30154553,"ECCENTRICITY":0.00014532,"INCLINATION":53.1607,"RA_OF_ASC_NODE":16.7837,"ARG_OF_PERICENTER":104.4153,"MEAN_ANOMALY":255.7009,"EPHEMERIS_TYPE":0,"CLASSIFICATION_TYPE":"U","NORAD_CAT_ID":62859,"ELEMENT_SET_NO":999,"REV_AT_EPOCH":4188,"BSTAR":0.0012338922,"MEAN_MOTION_DOT":0.00036313,"MEAN_MOTION_DDOT":0},{"OBJECT_NAME":"STARLINK-32831","OBJECT_ID":"2025-022G","EPOCH":"2025-10-29T22:45:18.457056","MEAN_MOTION":15.30206001,"ECCENTRICITY":0.00013722,"INCLINATION":53.1604,"RA_OF_ASC_NODE":16.8519,"ARG_OF_PERICENTER":89.6566,"MEAN_ANOMALY":270.4592,"EPHEMERIS_TYPE":0,"CLASSIFICATION_TYPE":"U","NORAD_CAT_ID":62860,"ELEMENT_SET_NO":999,"REV_AT_EPOCH":4187,"BSTAR":0.00099849884,"MEAN_MOTION_DOT":0.00029336,"MEAN_MOTION_DDOT":0},{"OBJECT_NAME":"STARLINK-32859","OBJECT_ID":"2025-022H","EPOCH":"2025-10-29T21:59:52.732320","MEAN_MOTION":15.30211681,"ECCENTRICITY":0.00011224,"INCLINATION":53.1605,"RA_OF_ASC_NODE":17.3617,"ARG_OF_PERICENTER":98.6792,"MEAN_ANOMALY":261.4336,"EPHEMERIS_TYPE":0,"CLASSIFICATION_TYPE":"U","NORAD_CAT_ID":62861,"ELEMENT_SET_NO":999,"REV_AT_EPOCH":4187,"BSTAR":0.0010465082,"MEAN_MOTION_DOT":0.00030775,"MEAN_MOTION_DDOT":0}]
